STARLINK-32935          
1 63202U 25048V   26068.39645887  .00030762  00000+0  11227-2 0  9996
2 63202  43.0001  87.2906 0001437 266.9278  93.1409 15.27579244 57048
TEVEL2-2                
1 63219U 25052K   26068.64848259  .00020339  00000+0  69428-3 0  9991
2 63219  97.3987 324.7700 0004693 105.7930 254.3828 15.30343745 54855
